{"type": "FeatureCollection", "features": [ {"type": "Feature", "properties": {"norad_id": 36280, "name": "FENGYUN 1C DEB", "group": "fengyun-1c-debris", "lat": 20.80928633908199, "lon": 6.486250900507805, "alt_km": 837.8257948577702, "timestamp": "2025-12-06T16:45:43.010528+00:00", "meta": {"OBJECT_NAME": "FENGYUN 1C DEB", "OBJECT_ID": "1999-025DXH", "EPOCH": "2025-12-02T19:47:23.057952", "MEAN_MOTION": 14.09689517, "ECCENTRICITY": 0.00636593, "INCLINATION": 98.7683, "RA_OF_ASC_NODE": 6.0758, "ARG_OF_PERICENTER": 93.3379, "MEAN_ANOMALY": 80.0221, "EPHEMERIS_TYPE": 0, "CLASSIFICATION_TYPE": "U", "NORAD_CAT_ID": 36280, "ELEMENT_SET_NO": 999, "REV_AT_EPOCH": 86214, "BSTAR": 0.0011452484, "MEAN_MOTION_DOT": 2.005e-05, "MEAN_MOTION_DDOT": 0}, "tle": {"line1": "1 36280U 99025DXH 25336.82457243  .00002005  00000+0  11452-2 0  9999", "line2": "2 36280  98.7683   6.0758 0063659  93.3379  80.0221 14.09689517862145"}}, "geometry": {"type": "Point", "coordinates": [6.486250900507805, 20.80928633908199]}}, {"type": "Feature", "properties": {"norad_id": 36281, "name": "FENGYUN 1C DEB", "group": "fengyun-1c-debris", "lat": -42.45475801766605, "lon": -88.45749311566361, "alt_km": 1252.1751189516735, "timestamp": "2025-12-06T16:45:43.010538+00:00", "meta": {"OBJECT_NAME": "FENGYUN 1C DEB", "OBJECT_ID": "1999-025DXJ", "EPOCH": "2025-12-06T01:05:43.056672", "MEAN_MOTION": 13.60197188, "ECCENTRICITY": 0.02892298, "INCLINATION": 99.2583, "RA_OF_ASC_NODE": 262.3422, "ARG_OF_PERICENTER": 128.1928, "MEAN_ANOMALY": 234.5643, "EPHEMERIS_TYPE": 0, "CLASSIFICATION_TYPE": "U", "NORAD_CAT_ID": 36281, "ELEMENT_SET_NO": 999, "REV_AT_EPOCH": 84426, "BSTAR": 0.003926612, "MEAN_MOTION_DOT": 3.837e-05, "MEAN_MOTION_DDOT": 0}, "tle": {"line1": "1 36281U 99025DXJ 25340.04563723  .00003837  00000+0  39266-2 0  9997", "line2": "2 36281  99.2583 262.3422 0289229 128.1928 234.5643 13.60197188844267"}}, "geometry": {"type": "Point", "coordinates": [-88.45749311566361, -42.45475801766605]}}, {"type": "Feature", "properties": {"norad_id": 36283, "name": "FENGYUN 1C DEB", "group": "fengyun-1c-debris", "lat": -39.55793953248173, "lon": 116.58079525723106, "alt_km": 598.5052087623762, "timestamp": "2025-12-06T16:45:43.010549+00:00", "meta": {"OBJECT_NAME": "FENGYUN 1C DEB", "OBJECT_ID": "1999-025DXL", "EPOCH": "2025-11-28T03:35:45.168576", "MEAN_MOTION": 15.05092252, "ECCENTRICITY": 0.00695379, "INCLINATION": 99.4205, "RA_OF_ASC_NODE": 294.0447, "ARG_OF_PERICENTER": 95.6406, "MEAN_ANOMALY": 265.275, "EPHEMERIS_TYPE": 0, "CLASSIFICATION_TYPE": "U", "NORAD_CAT_ID": 36283, "ELEMENT_SET_NO": 999, "REV_AT_EPOCH": 66446, "BSTAR": 0.0018499593, "MEAN_MOTION_DOT": 0.00027782, "MEAN_MOTION_DDOT": 0}, "tle": {"line1": "1 36283U 99025DXL 25332.14982834  .00027782  00000+0  18500-2 0  9992", "line2": "2 36283  99.4205 294.0447 0069537  95.6406 265.2750 15.05092252664467"}}, "geometry": {"type": "Point", "coordinates": [116.58079525723106, -39.55793953248173]}}, {"type": "Feature", "properties": {"norad_id": 36644, "name": "FENGYUN 1C DEB", "group": "fengyun-1c-debris", "lat": 14.530389623863112, "lon": -57.6670170387902, "alt_km": 855.872113725578, "timestamp": "2025-12-06T16:45:43.010559+00:00", "meta": {"OBJECT_NAME": "FENGYUN 1C DEB", "OBJECT_ID": "1999-025DXN", "EPOCH": "2025-11-26T15:39:07.759296", "MEAN_MOTION": 13.59124847, "ECCENTRICITY": 0.02860442, "INCLINATION": 98.4214, "RA_OF_ASC_NODE": 111.4857, "ARG_OF_PERICENTER": 222.436, "MEAN_ANOMALY": 135.4347, "EPHEMERIS_TYPE": 0, "CLASSIFICATION_TYPE": "U", "NORAD_CAT_ID": 36644, "ELEMENT_SET_NO": 999, "REV_AT_EPOCH": 61349, "BSTAR": 0.0017692716, "MEAN_MOTION_DOT": 1.666e-05, "MEAN_MOTION_DDOT": 0}, "tle": {"line1": "1 36644U 99025DXN 25330.65217314  .00001666  00000+0  17693-2 0  9996", "line2": "2 36644  98.4214 111.4857 0286044 222.4360 135.4347 13.59124847613497"}}, "geometry": {"type": "Point", "coordinates": [-57.6670170387902, 14.530389623863112]}}, {"type": "Feature", "properties": {"norad_id": 36647, "name": "FENGYUN 1C DEB", "group": "fengyun-1c-debris", "lat": 45.36793329051534, "lon": 117.20206866915095, "alt_km": 919.2688496976862, "timestamp": "2025-12-06T16:45:43.010569+00:00", "meta": {"OBJECT_NAME": "FENGYUN 1C DEB", "OBJECT_ID": "1999-025DXR", "EPOCH": "2025-12-03T15:55:19.418880", "MEAN_MOTION": 13.88719058, "ECCENTRICITY": 0.02386151, "INCLINATION": 96.1217, "RA_OF_ASC_NODE": 121.4438, "ARG_OF_PERICENTER": 326.4952, "MEAN_ANOMALY": 32.131, "EPHEMERIS_TYPE": 0, "CLASSIFICATION_TYPE": "U", "NORAD_CAT_ID": 36647, "ELEMENT_SET_NO": 999, "REV_AT_EPOCH": 30286, "BSTAR": 0.00299282, "MEAN_MOTION_DOT": 4.507e-05, "MEAN_MOTION_DDOT": 0}, "tle": {"line1": "1 36647U 99025DXR 25337.66341920  .00004507  00000+0  29928-2 0  9999", "line2": "2 36647  96.1217 121.4438 0238615 326.4952  32.1310 13.88719058302862"}}, "geometry": {"type": "Point", "coordinates": [117.20206866915095, 45.36793329051534]}}, {"type": "Feature", "properties": {"norad_id": 36652, "name": "FENGYUN 1C DEB", "group": "fengyun-1c-debris", "lat": -15.219644477132446, "lon": -119.67548519732685, "alt_km": 857.1806662449417, "timestamp": "2025-12-06T16:45:43.010579+00:00", "meta": {"OBJECT_NAME": "FENGYUN 1C DEB", "OBJECT_ID": "1999-025DXW", "EPOCH": "2025-12-05T22:58:08.471136", "MEAN_MOTION": 14.22738521, "ECCENTRICITY": 0.00507742, "INCLINATION": 98.9425, "RA_OF_ASC_NODE": 62.0274, "ARG_OF_PERICENTER": 13.4191, "MEAN_ANOMALY": 346.8323, "EPHEMERIS_TYPE": 0, "CLASSIFICATION_TYPE": "U", "NORAD_CAT_ID": 36652, "ELEMENT_SET_NO": 999, "REV_AT_EPOCH": 64228, "BSTAR": 0.0028454746, "MEAN_MOTION_DOT": 6.421e-05, "MEAN_MOTION_DDOT": 0}, "tle": {"line1": "1 36652U 99025DXW 25339.95704249  .00006421  00000+0  28455-2 0  9997", "line2": "2 36652  98.9425  62.0274 0050774  13.4191 346.8323 14.22738521642280"}}, "geometry": {"type": "Point", "coordinates": [-119.67548519732685, -15.219644477132446]}}, {"type": "Feature", "properties": {"norad_id": 36657, "name": "FENGYUN 1C DEB", "group": "fengyun-1c-debris", "lat": 9.478098303514678, "lon": -47.67337638750472, "alt_km": 669.929380627078, "timestamp": "2025-12-06T16:45:43.010589+00:00", "meta": {"OBJECT_NAME": "FENGYUN 1C DEB", "OBJECT_ID": "1999-025DYB", "EPOCH": "2025-12-05T08:51:49.310208", "MEAN_MOTION": 14.65432731, "ECCENTRICITY": 0.0106014, "INCLINATION": 99.4124, "RA_OF_ASC_NODE": 129.2192, "ARG_OF_PERICENTER": 89.3201, "MEAN_ANOMALY": 272.0144, "EPHEMERIS_TYPE": 0, "CLASSIFICATION_TYPE": "U", "NORAD_CAT_ID": 36657, "ELEMENT_SET_NO": 999, "REV_AT_EPOCH": 66148, "BSTAR": 0.0014208026, "MEAN_MOTION_DOT": 8.295e-05, "MEAN_MOTION_DDOT": 0}, "tle": {"line1": "1 36657U 99025DYB 25339.36932072  .00008295  00000+0  14208-2 0  9996", "line2": "2 36657  99.4124 129.2192 0106014  89.3201 272.0144 14.65432731661480"}}, "geometry": {"type": "Point", "coordinates": [-47.67337638750472, 9.478098303514678]}}, {"type": "Feature", "properties": {"norad_id": 36659, "name": "FENGYUN 1C DEB", "group": "fengyun-1c-debris", "lat": 55.32511641359891, "lon": -30.695978307616752, "alt_km": 849.6422387514067, "timestamp": "2025-12-06T16:45:43.010599+00:00", "meta": {"OBJECT_NAME": "FENGYUN 1C DEB", "OBJECT_ID": "1999-025DYD", "EPOCH": "2025-12-03T17:31:46.824384", "MEAN_MOTION": 13.87351182, "ECCENTRICITY": 0.01360495, "INCLINATION": 99.8537, "RA_OF_ASC_NODE": 340.7271, "ARG_OF_PERICENTER": 98.4924, "MEAN_ANOMALY": 263.1676, "EPHEMERIS_TYPE": 0, "CLASSIFICATION_TYPE": "U", "NORAD_CAT_ID": 36659, "ELEMENT_SET_NO": 999, "REV_AT_EPOCH": 60300, "BSTAR": 0.00086325838, "MEAN_MOTION_DOT": 1.046e-05, "MEAN_MOTION_DDOT": 0}, "tle": {"line1": "1 36659U 99025DYD 25337.73040306  .00001046  00000+0  86326-3 0  9995", "line2": "2 36659  99.8537 340.7271 0136049  98.4924 263.1676 13.87351182603004"}}, "geometry": {"type": "Point", "coordinates": [-30.695978307616752, 55.32511641359891]}}, {"type": "Feature", "properties": {"norad_id": 36664, "name": "FENGYUN 1C DEB", "group": "fengyun-1c-debris", "lat": 38.145337591413146, "lon": -1.3414050616259974, "alt_km": 801.8936929031788, "timestamp": "2025-12-06T16:45:43.010610+00:00", "meta": {"OBJECT_NAME": "FENGYUN 1C DEB", "OBJECT_ID": "1999-025DYJ", "EPOCH": "2025-12-06T08:06:42.196032", "MEAN_MOTION": 14.17952547, "ECCENTRICITY": 0.01734977, "INCLINATION": 98.6049, "RA_OF_ASC_NODE": 5.139, "ARG_OF_PERICENTER": 118.0489, "MEAN_ANOMALY": 243.8354, "EPHEMERIS_TYPE": 0, "CLASSIFICATION_TYPE": "U", "NORAD_CAT_ID": 36664, "ELEMENT_SET_NO": 999, "REV_AT_EPOCH": 63660, "BSTAR": 0.00016507704, "MEAN_MOTION_DOT": 3.5e-06, "MEAN_MOTION_DDOT": 0}, "tle": {"line1": "1 36664U 99025DYJ 25340.33798838  .00000350  00000+0  16508-3 0  9993", "line2": "2 36664  98.6049   5.1390 0173497 118.0489 243.8354 14.17952547636608"}}, "geometry": {"type": "Point", "coordinates": [-1.3414050616259974, 38.145337591413146]}}, {"type": "Feature", "properties": {"norad_id": 36668, "name": "FENGYUN 1C DEB", "group": "fengyun-1c-debris", "lat": 79.46162832201291, "lon": -63.25088463168831, "alt_km": 868.3012397801467, "timestamp": "2025-12-06T16:45:43.010620+00:00", "meta": {"OBJECT_NAME": "FENGYUN 1C DEB", "OBJECT_ID": "1999-025DYN", "EPOCH": "2025-12-06T06:11:01.660704", "MEAN_MOTION": 14.15370728, "ECCENTRICITY": 0.00512171, "INCLINATION": 98.6104, "RA_OF_ASC_NODE": 350.8586, "ARG_OF_PERICENTER": 244.8054, "MEAN_ANOMALY": 114.7804, "EPHEMERIS_TYPE": 0, "CLASSIFICATION_TYPE": "U", "NORAD_CAT_ID": 36668, "ELEMENT_SET_NO": 999, "REV_AT_EPOCH": 57326, "BSTAR": 0.0010743762, "MEAN_MOTION_DOT": 2.078e-05, "MEAN_MOTION_DDOT": 0}, "tle": {"line1": "1 36668U 99025DYN 25340.25765811  .00002078  00000+0  10744-2 0  9997", "line2": "2 36668  98.6104 350.8586 0051217 244.8054 114.7804 14.15370728573263"}}, "geometry": {"type": "Point", "coordinates": [-63.25088463168831, 79.46162832201291]}}]}